SHIYAN-24C 02           
1 58651U 23206B   26068.89175597  .00002770  00000+0  23935-3 0  9991
2 58651  97.3985  41.8071 0003465  80.6641 279.4974 14.97980163120443
STARLINK-33901          
1 63878U 25094Q   26068.85112424  .00011919  00000+0  10054-2 0  9993
2 63878  70.0016 234.1936 0003091 241.9102 118.1745 14.98313761 47223
